ONEWEB-0393             
1 50473U 21132E   23339.56653292  .00000029  00000+0  41308-4 0  9996
2 50473  87.9218 189.6533 0001689  91.1236 269.0089 13.17651050 96342
ONEWEB-0394             
1 50474U 21132F   23339.92204806  .00000064  00000+0  13085-3 0  9999
2 50474  87.9207 159.3379 0001595  86.0253 274.1062 13.18687469 99784
ONEWEB-0395             
1 50475U 21132G   23339.60314172  .00000013  00000+0 -40119-6 0  9999
2 50475  87.8985 204.8223 0001820  79.5457 280.5876 13.11419071 94532
ONEWEB-0396             
1 50476U 21132H   23339.53635639  .00000020  00000+0  18160-4 0  9992
2 50476  87.9208 159.4064 0001591  79.1299 281.0012 13.18686846 99777
ONEWEB-0397             
1 50477U 21132J   23339.55110559  .00000087  00000+0  18883-3 0  9998
2 50477  87.9204 159.4038 0001631  79.6143 280.5173 13.18687964 99755
ONEWEB-0398             
1 50478U 21132K   23339.64696711 -.00000214  00000+0 -64054-3 0  9993
2 50478  87.8970 204.8022 0001896  92.2131 267.9214 13.11415863 94439
ONEWEB-0399             
1 50479U 21132L   23339.55606968  .00000340  00000+0  92240-3 0  9995
2 50479  87.8977 204.8343 0001476  60.6492 299.4783 13.11416125 94417
ONEWEB-0400             
1 50480U 21132M   23339.53002102 -.00000277  00000+0 -73598-3 0  9991
2 50480  87.9210 159.4167 0001647  95.5557 264.5763 13.18686163 99748
